NORAD_CAT_ID,OBJECT_NAME,OBJECT_TYPE,EPOCH,MEAN_MOTION,ECCENTRICITY,INCLINATION,RA_OF_ASC_NODE,ARG_OF_PERICENTER,MEAN_ANOMALY,BSTAR,MEAN_MOTION_DOT,MEAN_MOTION_DDOT,TLE_LINE0,TLE_LINE1,TLE_LINE2,SEMIMAJOR_AXIS,PERIOD,APOGEE,PERIGEE,DECAYED
53930.0,STARLINK-5010,PAYLOAD,2023-10-04 10:27:32,15.08851416,0.0001601,53.2172,326.9,86.7561,273.3615,0.00040602,6.182e-05,0.0,0 STARLINK-5010,1 53930U 22119AW  23277.43579232  .00006182  00000-0  40602-3 0  9993,2 53930  53.2172 326.9000 0001601  86.7561 273.3615 15.08851416 58024,6917.845,95.437,540.818,538.603,0.0
53930.0,STARLINK-5010,PAYLOAD,2023-10-04 19:59:51,15.08846057,0.0001585,53.2168,325.1164,87.2113,272.906,0.00018003,2.579e-05,0.0,0 STARLINK-5010,1 53930U 22119AW  23277.83323196  .00002579  00000-0  18003-3 0  9999,2 53930  53.2168 325.1164 0001585  87.2113 272.9060 15.08846057 58081,6917.862,95.437,540.823,538.63,0.0
53930.0,STARLINK-5010,PAYLOAD,2023-10-05 10:18:19,15.08838918,0.0001631,53.2177,322.4413,84.767,275.3508,-4.1571e-05,-9.5e-06,0.0,0 STARLINK-5010,1 53930U 22119AW  23278.42939568 -.00000950  00000-0 -41571-4 0  9991,2 53930  53.2177 322.4413 0001631  84.7670 275.3508 15.08838918 57754,6917.884,95.438,540.877,538.62,0.0
53930.0,STARLINK-5010,PAYLOAD,2023-10-05 19:50:38,15.08839736,0.0001626,53.2174,320.6572,86.0611,274.0567,-1.6884e-05,-5.57e-06,0.0,0 STARLINK-5010,1 53930U 22119AW  23278.82683578 -.00000557  00000-0 -16884-4 0  9994,2 53930  53.2174 320.6572 0001626  86.0611 274.0567 15.08839736 58235,6917.881,95.438,540.871,538.621,0.0
53930.0,STARLINK-5010,PAYLOAD,2023-10-06 11:44:29,15.08846432,0.000149,53.218,317.6832,82.939,277.1771,0.0001789,2.561e-05,0.0,0 STARLINK-5010,1 53930U 22119AW  23279.48923505  .00002561  00000-0  17890-3 0  9996,2 53930  53.2180 317.6832 0001490  82.9390 277.1771 15.08846432 58338,6917.861,95.437,540.756,538.695,0.0
53930.0,STARLINK-5010,PAYLOAD,2023-10-06 19:41:25,15.08839927,0.0001721,53.2175,316.194,91.1857,268.9333,1.3679e-05,-7e-07,0.0,0 STARLINK-5010,1 53930U 22119AW  23279.82043799 -.00000070  00000-0  13679-4 0  9998,2 53930  53.2175 316.1940 0001721  91.1857 268.9333 15.08839927 58381,6917.881,95.438,540.936,538.555,0.0
53930.0,STARLINK-5010,PAYLOAD,2023-10-07 02:02:58,15.08833875,0.000163,53.2179,315.0052,87.793,272.3249,0.00019225,2.772e-05,0.0,0 STARLINK-5010,1 53930U 22119AW  23280.08540267  .00002772  00000-0  19225-3 0  9992,2 53930  53.2179 315.0052 0001630  87.7930 272.3249 15.08833875 58009,6917.899,95.438,540.892,538.636,0.0
53930.0,STARLINK-5010,PAYLOAD,2023-10-07 09:59:54,15.088429,0.0001846,53.2181,313.5191,92.7423,267.3781,0.00017863,2.556e-05,0.0,0 STARLINK-5010,1 53930U 22119AW  23280.41659855  .00002556  00000-0  17863-3 0  9999,2 53930  53.2181 313.5191 0001846  92.7423 267.3781 15.08842900 58050,6917.872,95.437,541.014,538.459,0.0
53930.0,STARLINK-5010,PAYLOAD,2023-10-07 19:32:13,15.08837866,0.000185,53.2177,311.7356,80.3955,279.7246,7.7145e-05,9.4e-06,0.0,0 STARLINK-5010,1 53930U 22119AW  23280.81404270  .00000940  00000-0  77145-4 0  9997,2 53930  53.2177 311.7356 0001850  80.3955 279.7246 15.08837866 58537,6917.887,95.438,541.032,538.472,0.0
53930.0,STARLINK-5010,PAYLOAD,2023-10-08 01:53:46,15.08835465,0.0001805,53.2174,310.546,81.6129,278.5067,7.9308e-05,9.74e-06,0.0,0 STARLINK-5010,1 53930U 22119AW  23281.07900463  .00000974  00000-0  79308-4 0  9991,2 53930  53.2174 310.5460 0001805  81.6129 278.5067 15.08835465 58153,6917.894,95.438,541.008,538.511,0.0
53930.0,STARLINK-5010,PAYLOAD,2023-10-08 08:15:18,15.08841176,0.0001642,53.2174,309.3547,90.4404,269.6776,6.9719e-05,8.22e-06,0.0,0 STARLINK-5010,1 53930U 22119AW  23281.34396317  .00000822  00000-0  69719-4 0  9995,2 53930  53.2174 309.3547 0001642  90.4404 269.6776 15.08841176 58613,6917.877,95.437,540.878,538.606,0.0
53930.0,STARLINK-5010,PAYLOAD,2023-10-08 19:22:59,15.08847491,0.0001675,53.2176,307.2736,90.0505,270.0679,5.8027e-05,6.36e-06,0.0,0 STARLINK-5010,1 53930U 22119AW  23281.80763871  .00000636  00000-0  58027-4 0  9992,2 53930  53.2176 307.2736 0001675  90.0505 270.0679 15.08847491 58687,6917.857,95.437,540.881,538.564,0.0
53930.0,STARLINK-5010,PAYLOAD,2023-10-09 01:44:32,15.088451,0.0001726,53.2173,306.0845,90.6437,269.4752,0.00013191,1.812e-05,0.0,0 STARLINK-5010,1 53930U 22119AW  23282.07259941  .00001812  00000-0  13191-3 0  9999,2 53930  53.2173 306.0845 0001726  90.6437 269.4752 15.08845100 58307,6917.865,95.437,540.924,538.536,0.0
53930.0,STARLINK-5010,PAYLOAD,2023-10-09 08:06:04,15.08851784,0.0001751,53.2167,304.8939,95.386,264.7332,0.00019838,2.872e-05,0.0,0 STARLINK-5010,1 53930U 22119AW  23282.33755638  .00002872  00000-0  19838-3 0  9993,2 53930  53.2167 304.8939 0001751  95.3860 264.7332 15.08851784 58767,6917.844,95.437,540.921,538.498,0.0
53930.0,STARLINK-5010,PAYLOAD,2023-10-09 22:24:33,15.08842492,0.0001699,53.2156,302.2183,91.303,268.8157,0.00015864,2.238e-05,0.0,0 STARLINK-5010,1 53930U 22119AW  23282.93372078  .00002238  00000-0  15864-3 0  9993,2 53930  53.2156 302.2183 0001699  91.3030 268.8157 15.08842492 58434,6917.873,95.437,540.913,538.562,0.0
53930.0,STARLINK-5010,PAYLOAD,2023-10-10 12:43:00,15.08852134,0.0001767,53.2175,299.5413,99.6171,260.5021,0.00016894,2.402e-05,0.0,0 STARLINK-5010,1 53930U 22119AW  23283.52987182  .00002402  00000-0  16894-3 0  9994,2 53930  53.2175 299.5413 0001767  99.6171 260.5021 15.08852134 58941,6917.843,95.437,540.931,538.486,0.0
53930.0,STARLINK-5010,PAYLOAD,2023-10-11 01:26:07,15.08830646,0.0001916,53.2158,297.1625,98.7969,261.324,-0.00013885,-2.497e-05,0.0,0 STARLINK-5010,1 53930U 22119AW  23284.05980679 -.00002497  00000-0 -13885-3 0  9990,2 53930  53.2158 297.1625 0001916  98.7969 261.3240 15.08830646 58601,6917.909,95.438,541.099,538.449,0.0
53930.0,STARLINK-5010,PAYLOAD,2023-10-11 12:33:49,15.08840865,0.0001768,53.2173,295.0818,96.4377,263.6817,2.7225e-05,1.45e-06,0.0,0 STARLINK-5010,1 53930U 22119AW  23284.52348456  .00000145  00000-0  27225-4 0  9993,2 53930  53.2173 295.0818 0001768  96.4377 263.6817 15.08840865 59095,6917.878,95.437,540.966,538.52,0.0
53930.0,STARLINK-5010,PAYLOAD,2023-10-12 04:27:41,15.0883245,0.0001633,53.2174,292.1085,96.8991,263.2187,4.5955e-05,4.43e-06,0.0,0 STARLINK-5010,1 53930U 22119AW  23285.18589211  .00000443  00000-0  45955-4 0  9993,2 53930  53.2174 292.1085 0001633  96.8991 263.2187 15.08832450 58778,6917.903,95.438,540.898,538.639,0.0
53930.0,STARLINK-5010,PAYLOAD,2023-10-12 09:13:49,15.08843339,0.0001739,53.2174,291.2155,100.9829,259.1359,0.00015804,2.228e-05,0.0,0 STARLINK-5010,1 53930U 22119AW  23285.38460374  .00002228  00000-0  15804-3 0  9995,2 53930  53.2174 291.2155 0001739 100.9829 259.1359 15.08843339 58807,6917.87,95.437,540.938,538.532,0.0
53930.0,STARLINK-5010,PAYLOAD,2023-10-12 17:10:45,15.08842703,0.0001733,53.2159,289.7297,95.8297,264.2893,9.7153e-05,1.259e-05,0.0,0 STARLINK-5010,1 53930U 22119AW  23285.71580581  .00001259  00000-0  97153-4 0  9996,2 53930  53.2159 289.7297 0001733  95.8297 264.2893 15.08842703 59270,6917.872,95.437,540.936,538.538,0.0
53930.0,STARLINK-5010,PAYLOAD,2023-10-13 04:18:28,15.08835798,0.000174,53.2166,287.6489,95.1267,264.9924,0.000141,1.956e-05,0.0,0 STARLINK-5010,1 53930U 22119AW  23286.17949226  .00001956  00000-0  14100-3 0  9996,2 53930  53.2166 287.6489 0001740  95.1267 264.9924 15.08835798 58925,6917.893,95.438,540.962,538.555,0.0
53930.0,STARLINK-5010,PAYLOAD,2023-10-13 10:40:00,15.08839999,0.0001671,53.2168,286.4598,92.8752,267.2432,0.0001771,2.532e-05,0.0,0 STARLINK-5010,1 53930U 22119AW  23286.44445010  .00002532  00000-0  17710-3 0  9999,2 53930  53.2168 286.4598 0001671  92.8752 267.2432 15.08839999 59389,6917.88,95.438,540.901,538.589,0.0
53930.0,STARLINK-5010,PAYLOAD,2023-10-13 17:01:33,15.08841008,0.0001775,53.2178,285.2706,98.3221,261.7973,0.00013654,1.886e-05,0.0,0 STARLINK-5010,1 53930U 22119AW  23286.70941114  .00001886  00000-0  13654-3 0  9998,2 53930  53.2178 285.2706 0001775  98.3221 261.7973 15.08841008 59423,6917.877,95.437,540.97,538.514,0.0
53930.0,STARLINK-5010,PAYLOAD,2023-10-14 08:55:23,15.08852736,0.0001834,53.2164,282.2959,99.2813,260.8387,0.00017628,2.519e-05,0.0,0 STARLINK-5010,1 53930U 22119AW  23287.37180238  .00002519  00000-0  17628-3 0  9993,2 53930  53.2164 282.2959 0001834  99.2813 260.8387 15.08852736 59102,6917.841,95.437,540.975,538.438,0.0
53930.0,STARLINK-5010,PAYLOAD,2023-10-15 05:35:25,15.08828457,0.0001439,53.2166,278.4291,92.1296,267.9861,-7.5894e-05,-1.495e-05,0.0,0 STARLINK-5010,1 53930U 22119AW  23288.23293661 -.00001495  00000-0 -75894-4 0  9998,2 53930  53.2166 278.4291 0001439  92.1296 267.9861 15.08828457 59230,6917.916,95.438,540.776,538.785,0.0
53930.0,STARLINK-5010,PAYLOAD,2023-10-15 08:46:11,15.08833582,0.000149,53.216,277.8343,90.9925,269.1238,-2.9075e-05,-7.51e-06,0.0,0 STARLINK-5010,1 53930U 22119AW  23288.36541527 -.00000751  00000-0 -29075-4 0  9993,2 53930  53.2160 277.8343 0001490  90.9925 269.1238 15.08833582 59672,6917.9,95.438,540.796,538.734,0.0
53930.0,STARLINK-5010,PAYLOAD,2023-10-15 16:43:07,15.0883597,0.0001463,53.2161,276.3476,90.4293,269.6867,9.1406e-05,1.167e-05,0.0,0 STARLINK-5010,1 53930U 22119AW  23288.69661485  .00001167  00000-0  91406-4 0  9992,2 53930  53.2161 276.3476 0001463  90.4293 269.6867 15.08835970 59303,6917.893,95.438,540.77,538.746,0.0
53930.0,STARLINK-5010,PAYLOAD,2023-10-16 05:26:12,15.08853518,0.0001429,53.2153,273.9676,90.5039,269.6117,0.00063754,9.877e-05,0.0,0 STARLINK-5010,1 53930U 22119AW  23289.22653181  .00009877  00000-0  63754-3 0  9996,2 53930  53.2153 273.9676 0001429  90.5039 269.6117 15.08853518 59384,6917.839,95.437,540.693,538.716,0.0
53930.0,STARLINK-5010,PAYLOAD,2023-10-17 08:27:45,15.08857056,0.0001624,53.2183,268.9117,101.369,258.7484,0.00048668,7.47e-05,0.0,0 STARLINK-5010,1 53930U 22119AW  23290.35260805  .00007470  00000-0  48668-3 0  9993,2 53930  53.2183 268.9117 0001624 101.3690 258.7484 15.08857056 59558,6917.828,95.436,540.817,538.57,0.0
